CCSDS_OMM_VERS = 2.0
CREATION_DATE  = 
ORIGINATOR     = 

OBJECT_NAME    = STARLINK-36257
OBJECT_ID      = 2026-035AA
CENTER_NAME    = EARTH
REF_FRAME      = TEME
TIME_SYSTEM    = UTC
MEAN_ELEMENT_THEORY = SGP/SGP4

EPOCH          = 2026-03-22T18:27:49.097664
MEAN_MOTION    = 15.75291798
ECCENTRICITY   = .00013606
INCLINATION    = 97.2873
RA_OF_ASC_NODE = 14.8277
ARG_OF_PERICENTER = 101.7871
MEAN_ANOMALY   = 258.3547

EPHEMERIS_TYPE = 0
CLASSIFICATION_TYPE = U
NORAD_CAT_ID   = 67903
ELEMENT_SET_NO = 999
REV_AT_EPOCH   = 590
BSTAR          = .17123515E-2
MEAN_MOTION_DOT = .264511E-2
MEAN_MOTION_DDOT = 0

CCSDS_OMM_VERS = 2.0
CREATION_DATE  = 
ORIGINATOR     = 

OBJECT_NAME    = STARLINK-36814
OBJECT_ID      = 2026-036A
CENTER_NAME    = EARTH
REF_FRAME      = TEME
TIME_SYSTEM    = UTC
MEAN_ELEMENT_THEORY = SGP/SGP4

EPOCH          = 2026-03-22T14:44:56.613696
MEAN_MOTION    = 15.50597032
ECCENTRICITY   = .00018134
INCLINATION    = 43.0003
RA_OF_ASC_NODE = 173.6060
ARG_OF_PERICENTER = 246.0294
MEAN_ANOMALY   = 114.0377

EPHEMERIS_TYPE = 0
CLASSIFICATION_TYPE = U
NORAD_CAT_ID   = 67904
ELEMENT_SET_NO = 999
REV_AT_EPOCH   = 568
BSTAR          = .15665001E-2
MEAN_MOTION_DOT = .92713E-3
MEAN_MOTION_DDOT = 0

CCSDS_OMM_VERS = 2.0
CREATION_DATE  = 
ORIGINATOR     = 

OBJECT_NAME    = STARLINK-36729
OBJECT_ID      = 2026-036B
CENTER_NAME    = EARTH
REF_FRAME      = TEME
TIME_SYSTEM    = UTC
MEAN_ELEMENT_THEORY = SGP/SGP4

EPOCH          = 2026-03-22T22:00:01.999584
MEAN_MOTION    = 15.44333075
ECCENTRICITY   = .00015026
INCLINATION    = 43.0000
RA_OF_ASC_NODE = 171.2331
ARG_OF_PERICENTER = 295.8427
MEAN_ANOMALY   = 198.1496

EPHEMERIS_TYPE = 0
CLASSIFICATION_TYPE = U
NORAD_CAT_ID   = 67905
ELEMENT_SET_NO = 999
REV_AT_EPOCH   = 577
BSTAR          = -.45847899E-1
MEAN_MOTION_DOT = -.1936739E-1
MEAN_MOTION_DDOT = 0

CCSDS_OMM_VERS = 2.0
CREATION_DATE  = 
ORIGINATOR     = 

OBJECT_NAME    = STARLINK-36763
OBJECT_ID      = 2026-036C
CENTER_NAME    = EARTH
REF_FRAME      = TEME
TIME_SYSTEM    = UTC
MEAN_ELEMENT_THEORY = SGP/SGP4

EPOCH          = 2026-03-22T22:00:01.999584
MEAN_MOTION    = 15.42857569
ECCENTRICITY   = .00014697
INCLINATION    = 42.9996
RA_OF_ASC_NODE = 171.1809
ARG_OF_PERICENTER = 288.3660
MEAN_ANOMALY   = 226.4838

EPHEMERIS_TYPE = 0
CLASSIFICATION_TYPE = U
NORAD_CAT_ID   = 67906
ELEMENT_SET_NO = 999
REV_AT_EPOCH   = 577
BSTAR          = -.48595075E-1
MEAN_MOTION_DOT = -.1950239E-1
MEAN_MOTION_DDOT = 0

CCSDS_OMM_VERS = 2.0
CREATION_DATE  = 
ORIGINATOR     = 

OBJECT_NAME    = STARLINK-36742
OBJECT_ID      = 2026-036D
CENTER_NAME    = EARTH
REF_FRAME      = TEME
TIME_SYSTEM    = UTC
MEAN_ELEMENT_THEORY = SGP/SGP4

EPOCH          = 2026-03-22T22:00:01.999584
MEAN_MOTION    = 15.46016605
ECCENTRICITY   = .0001182
INCLINATION    = 43.0004
RA_OF_ASC_NODE = 171.1904
ARG_OF_PERICENTER = 294.2193
MEAN_ANOMALY   = 216.8396

EPHEMERIS_TYPE = 0
CLASSIFICATION_TYPE = U
NORAD_CAT_ID   = 67907
ELEMENT_SET_NO = 999
REV_AT_EPOCH   = 577
BSTAR          = -.43703484E-1
MEAN_MOTION_DOT = -.1954463E-1
MEAN_MOTION_DDOT = 0

CCSDS_OMM_VERS = 2.0
CREATION_DATE  = 
ORIGINATOR     = 

OBJECT_NAME    = STARLINK-36827
OBJECT_ID      = 2026-036E
CENTER_NAME    = EARTH
REF_FRAME      = TEME
TIME_SYSTEM    = UTC
MEAN_ELEMENT_THEORY = SGP/SGP4

EPOCH          = 2026-03-22T22:00:01.999584
MEAN_MOTION    = 15.40661642
ECCENTRICITY   = .00011337
INCLINATION    = 42.9997
RA_OF_ASC_NODE = 170.9600
ARG_OF_PERICENTER = 276.6123
MEAN_ANOMALY   = 327.8999

EPHEMERIS_TYPE = 0
CLASSIFICATION_TYPE = U
NORAD_CAT_ID   = 67908
ELEMENT_SET_NO = 999
REV_AT_EPOCH   = 577
BSTAR          = -.50215915E-1
MEAN_MOTION_DOT = -.1879246E-1
MEAN_MOTION_DDOT = 0

CCSDS_OMM_VERS = 2.0
CREATION_DATE  = 
ORIGINATOR     = 

OBJECT_NAME    = STARLINK-36822
OBJECT_ID      = 2026-036F
CENTER_NAME    = EARTH
REF_FRAME      = TEME
TIME_SYSTEM    = UTC
MEAN_ELEMENT_THEORY = SGP/SGP4

EPOCH          = 2026-03-21T15:50:21.543648
MEAN_MOTION    = 15.50685632
ECCENTRICITY   = .00001791
INCLINATION    = 42.9968
RA_OF_ASC_NODE = 178.4570
ARG_OF_PERICENTER = 89.2305
MEAN_ANOMALY   = 270.8576

EPHEMERIS_TYPE = 0
CLASSIFICATION_TYPE = U
NORAD_CAT_ID   = 67909
ELEMENT_SET_NO = 999
REV_AT_EPOCH   = 554
BSTAR          = .15159786E-2
MEAN_MOTION_DOT = .89964E-3
MEAN_MOTION_DDOT = 0

CCSDS_OMM_VERS = 2.0
CREATION_DATE  = 
ORIGINATOR     = 

OBJECT_NAME    = STARLINK-36847
OBJECT_ID      = 2026-036G
CENTER_NAME    = EARTH
REF_FRAME      = TEME
TIME_SYSTEM    = UTC
MEAN_ELEMENT_THEORY = SGP/SGP4

EPOCH          = 2026-03-22T13:33:53.255808
MEAN_MOTION    = 15.50570646
ECCENTRICITY   = .00009254
INCLINATION    = 43.0008
RA_OF_ASC_NODE = 173.2112
ARG_OF_PERICENTER = 249.3874
MEAN_ANOMALY   = 110.6887

EPHEMERIS_TYPE = 0
CLASSIFICATION_TYPE = U
NORAD_CAT_ID   = 67910
ELEMENT_SET_NO = 999
REV_AT_EPOCH   = 568
BSTAR          = .1448275E-2
MEAN_MOTION_DOT = .85529E-3
MEAN_MOTION_DDOT = 0

CCSDS_OMM_VERS = 2.0
CREATION_DATE  = 
ORIGINATOR     = 

OBJECT_NAME    = STARLINK-36736
OBJECT_ID      = 2026-036H
CENTER_NAME    = EARTH
REF_FRAME      = TEME
TIME_SYSTEM    = UTC
MEAN_ELEMENT_THEORY = SGP/SGP4

EPOCH          = 2026-03-22T22:00:01.999584
MEAN_MOTION    = 15.38124192
ECCENTRICITY   = .00011753
INCLINATION    = 42.9990
RA_OF_ASC_NODE = 170.7566
ARG_OF_PERICENTER = 264.9761
MEAN_ANOMALY   = 61.6210

EPHEMERIS_TYPE = 0
CLASSIFICATION_TYPE = U
NORAD_CAT_ID   = 67911
ELEMENT_SET_NO = 999
REV_AT_EPOCH   = 577
BSTAR          = -.52755907E-1
MEAN_MOTION_DOT = -.1821238E-1
MEAN_MOTION_DDOT = 0

CCSDS_OMM_VERS = 2.0
CREATION_DATE  = 
ORIGINATOR     = 

OBJECT_NAME    = STARLINK-36676
OBJECT_ID      = 2026-036J
CENTER_NAME    = EARTH
REF_FRAME      = TEME
TIME_SYSTEM    = UTC
MEAN_ELEMENT_THEORY = SGP/SGP4

EPOCH          = 2026-03-22T22:00:01.999584
MEAN_MOTION    = 15.42508112
ECCENTRICITY   = .0001301
INCLINATION    = 42.9996
RA_OF_ASC_NODE = 170.7932
ARG_OF_PERICENTER = 263.1122
MEAN_ANOMALY   = 49.0467

EPHEMERIS_TYPE = 0
CLASSIFICATION_TYPE = U
NORAD_CAT_ID   = 67912
ELEMENT_SET_NO = 999
REV_AT_EPOCH   = 577
BSTAR          = -.47949863E-1
MEAN_MOTION_DOT = -.1906571E-1
MEAN_MOTION_DDOT = 0

CCSDS_OMM_VERS = 2.0
CREATION_DATE  = 
ORIGINATOR     = 

OBJECT_NAME    = STARLINK-36690
OBJECT_ID      = 2026-036K
CENTER_NAME    = EARTH
REF_FRAME      = TEME
TIME_SYSTEM    = UTC
MEAN_ELEMENT_THEORY = SGP/SGP4

EPOCH          = 2026-03-22T22:00:01.999584
MEAN_MOTION    = 15.43500433
ECCENTRICITY   = .00018173
INCLINATION    = 42.9987
RA_OF_ASC_NODE = 170.7622
ARG_OF_PERICENTER = 269.4380
MEAN_ANOMALY   = 54.4777

EPHEMERIS_TYPE = 0
CLASSIFICATION_TYPE = U
NORAD_CAT_ID   = 67913
ELEMENT_SET_NO = 999
REV_AT_EPOCH   = 577
BSTAR          = -.47560464E-1
MEAN_MOTION_DOT = -.1951101E-1
MEAN_MOTION_DDOT = 0

CCSDS_OMM_VERS = 2.0
CREATION_DATE  = 
ORIGINATOR     = 

OBJECT_NAME    = STARLINK-36724
OBJECT_ID      = 2026-036L
CENTER_NAME    = EARTH
REF_FRAME      = TEME
TIME_SYSTEM    = UTC
MEAN_ELEMENT_THEORY = SGP/SGP4

EPOCH          = 2026-03-22T22:00:01.999584
MEAN_MOTION    = 15.45548629
ECCENTRICITY   = .00019153
INCLINATION    = 43.0000
RA_OF_ASC_NODE = 170.6889
ARG_OF_PERICENTER = 269.0390
MEAN_ANOMALY   = 84.5744

EPHEMERIS_TYPE = 0
CLASSIFICATION_TYPE = U
NORAD_CAT_ID   = 67914
ELEMENT_SET_NO = 999
REV_AT_EPOCH   = 577
BSTAR          = -.44700062E-1
MEAN_MOTION_DOT = -.1965926E-1
MEAN_MOTION_DDOT = 0

