STARLINK-36257          
1 67903U 26035AA  26081.76931826  .00264511  00000+0  17124-2 0  9995
2 67903  97.2873  14.8277 0001360 101.7871 258.3547 15.75291798  5909
STARLINK-36814          
1 67904U 26036A   26081.61454414  .00092713  00000+0  15665-2 0  9995
2 67904  43.0003 173.6060 0001813 246.0294 114.0377 15.50597032  5680
STARLINK-36729          
1 67905U 26036B   26081.91668981 -.01936739  00000+0 -45848-1 0  9998
2 67905  43.0000 171.2331 0001502 295.8427 198.1496 15.44333075  5771
STARLINK-36763          
1 67906U 26036C   26081.91668981 -.01950239  00000+0 -48595-1 0  9992
2 67906  42.9996 171.1809 0001469 288.3660 226.4838 15.42857569  5773
STARLINK-36742          
1 67907U 26036D   26081.91668981 -.01954463  00000+0 -43703-1 0  9992
2 67907  43.0004 171.1904 0001182 294.2193 216.8396 15.46016605  5775
STARLINK-36827          
1 67908U 26036E   26081.91668981 -.01879246  00000+0 -50216-1 0  9995
2 67908  42.9997 170.9600 0001133 276.6123 327.8999 15.40661642  5771
STARLINK-36822          
1 67909U 26036F   26080.65997157  .00089964  00000+0  15160-2 0  9993
2 67909  42.9968 178.4570 0000179  89.2305 270.8576 15.50685632  5547
STARLINK-36847          
1 67910U 26036G   26081.56519972  .00085529  00000+0  14483-2 0  9991
2 67910  43.0008 173.2112 0000925 249.3874 110.6887 15.50570646  5689
STARLINK-36736          
1 67911U 26036H   26081.91668981 -.01821238  00000+0 -52756-1 0  9998
2 67911  42.9990 170.7566 0001175 264.9761  61.6210 15.38124192  5771
STARLINK-36676          
1 67912U 26036J   26081.91668981 -.01906571  00000+0 -47950-1 0  9993
2 67912  42.9996 170.7932 0001301 263.1122  49.0467 15.42508112  5775
STARLINK-36690          
1 67913U 26036K   26081.91668981 -.01951101  00000+0 -47560-1 0  9990
2 67913  42.9987 170.7622 0001817 269.4380  54.4777 15.43500433  5772
STARLINK-36724          
1 67914U 26036L   26081.91668981 -.01965926  00000+0 -44700-1 0  9994
2 67914  43.0000 170.6889 0001915 269.0390  84.5744 15.45548629  5770
